{"type": "FeatureCollection", "features": [ {"type": "Feature", "properties": {"norad_id": 39122, "name": "EUTELSAT 117 WEST A", "group": "eutelsat", "lat": -0.021865739262620986, "lon": -142.85797448842106, "alt_km": 35777.16620179306, "timestamp": "2025-12-10T16:57:11.305969+00:00", "meta": {"OBJECT_NAME": "EUTELSAT 117 WEST A", "OBJECT_ID": "2013-012A", "EPOCH": "2025-12-10T08:50:38.825088", "MEAN_MOTION": 1.00270995, "ECCENTRICITY": 0.0003028, "INCLINATION": 0.0124, "RA_OF_ASC_NODE": 358.5281, "ARG_OF_PERICENTER": 263.2322, "MEAN_ANOMALY": 193.4421, "EPHEMERIS_TYPE": 0, "CLASSIFICATION_TYPE": "U", "NORAD_CAT_ID": 39122, "ELEMENT_SET_NO": 999, "REV_AT_EPOCH": 4654, "BSTAR": 0, "MEAN_MOTION_DOT": -9e-08, "MEAN_MOTION_DDOT": 0}, "tle": {"line1": "1 39122U 13012A   25344.36850492 -.00000009  00000+0  00000+0 0  9997", "line2": "2 39122   0.0124 358.5281 0003028 263.2322 193.4421  1.00270995 46547"}}, "geometry": {"type": "Point", "coordinates": [-142.85797448842106, -0.021865739262620986]}}, {"type": "Feature", "properties": {"norad_id": 39163, "name": "EUTELSAT 7B", "group": "eutelsat", "lat": -0.04256609740633199, "lon": -19.01622191963782, "alt_km": 35768.604250302415, "timestamp": "2025-12-10T16:57:11.305982+00:00", "meta": {"OBJECT_NAME": "EUTELSAT 7B", "OBJECT_ID": "2013-022A", "EPOCH": "2025-12-10T06:21:38.694816", "MEAN_MOTION": 1.00272011, "ECCENTRICITY": 0.0004588, "INCLINATION": 0.0716, "RA_OF_ASC_NODE": 16.4121, "ARG_OF_PERICENTER": 298.9676, "MEAN_ANOMALY": 226.2631, "EPHEMERIS_TYPE": 0, "CLASSIFICATION_TYPE": "U", "NORAD_CAT_ID": 39163, "ELEMENT_SET_NO": 999, "REV_AT_EPOCH": 4606, "BSTAR": 0, "MEAN_MOTION_DOT": 5.1e-07, "MEAN_MOTION_DDOT": 0}, "tle": {"line1": "1 39163U 13022A   25344.26503119  .00000051  00000+0  00000+0 0  9999", "line2": "2 39163   0.0716  16.4121 0004588 298.9676 226.2631  1.00272011 46067"}}, "geometry": {"type": "Point", "coordinates": [-19.01622191963782, -0.04256609740633199]}}, {"type": "Feature", "properties": {"norad_id": 39612, "name": "EXPRESS-AT1", "group": "eutelsat", "lat": 0.022454855628428257, "lon": 29.96215495105728, "alt_km": 35788.78055315834, "timestamp": "2025-12-10T16:57:11.305995+00:00", "meta": {"OBJECT_NAME": "EXPRESS-AT1", "OBJECT_ID": "2014-010A", "EPOCH": "2025-12-10T00:53:38.582304", "MEAN_MOTION": 1.0027054, "ECCENTRICITY": 5.761e-05, "INCLINATION": 0.0121, "RA_OF_ASC_NODE": 290.9998, "ARG_OF_PERICENTER": 272.8151, "MEAN_ANOMALY": 304.608, "EPHEMERIS_TYPE": 0, "CLASSIFICATION_TYPE": "U", "NORAD_CAT_ID": 39612, "ELEMENT_SET_NO": 999, "REV_AT_EPOCH": 4292, "BSTAR": 0, "MEAN_MOTION_DOT": 8.2e-07, "MEAN_MOTION_DDOT": 0}, "tle": {"line1": "1 39612U 14010A   25344.03725211  .00000082  00000+0  00000+0 0  9994", "line2": "2 39612   0.0121 290.9998 0000576 272.8151 304.6080  1.00270540 42924"}}, "geometry": {"type": "Point", "coordinates": [29.96215495105728, 0.022454855628428257]}}, {"type": "Feature", "properties": {"norad_id": 39613, "name": "EXPRESS-AT2", "group": "eutelsat", "lat": 0.025353557501799993, "lon": 113.83339337899803, "alt_km": 35793.13786128796, "timestamp": "2025-12-10T16:57:11.306008+00:00", "meta": {"OBJECT_NAME": "EXPRESS-AT2", "OBJECT_ID": "2014-010B", "EPOCH": "2025-12-10T12:49:38.623584", "MEAN_MOTION": 1.00269643, "ECCENTRICITY": 0.0001525, "INCLINATION": 0.0161, "RA_OF_ASC_NODE": 340.0718, "ARG_OF_PERICENTER": 315.08, "MEAN_ANOMALY": 116.6304, "EPHEMERIS_TYPE": 0, "CLASSIFICATION_TYPE": "U", "NORAD_CAT_ID": 39613, "ELEMENT_SET_NO": 999, "REV_AT_EPOCH": 4260, "BSTAR": 0, "MEAN_MOTION_DOT": 0, "MEAN_MOTION_DDOT": 0}, "tle": {"line1": "1 39613U 14010B   25344.53447481  .00000000  00000+0  00000+0 0  9990", "line2": "2 39613   0.0161 340.0718 0001525 315.0800 116.6304  1.00269643 42609"}}, "geometry": {"type": "Point", "coordinates": [113.83339337899803, 0.025353557501799993]}}, {"type": "Feature", "properties": {"norad_id": 39773, "name": "EUTELSAT 3B", "group": "eutelsat", "lat": -0.008527493251898194, "lon": -22.86981015481255, "alt_km": 35792.30479588989, "timestamp": "2025-12-10T16:57:11.306019+00:00", "meta": {"OBJECT_NAME": "EUTELSAT 3B", "OBJECT_ID": "2014-030A", "EPOCH": "2025-12-10T06:29:38.861088", "MEAN_MOTION": 1.00271741, "ECCENTRICITY": 0.0004689, "INCLINATION": 0.0626, "RA_OF_ASC_NODE": 343.8632, "ARG_OF_PERICENTER": 244.6896, "MEAN_ANOMALY": 311.215, "EPHEMERIS_TYPE": 0, "CLASSIFICATION_TYPE": "U", "NORAD_CAT_ID": 39773, "ELEMENT_SET_NO": 999, "REV_AT_EPOCH": 4217, "BSTAR": 0, "MEAN_MOTION_DOT": 2.3e-07, "MEAN_MOTION_DDOT": 0}, "tle": {"line1": "1 39773U 14030A   25344.27058867  .00000023  00000+0  00000+0 0  9991", "line2": "2 39773   0.0626 343.8632 0004689 244.6896 311.2150  1.00271741 42170"}}, "geometry": {"type": "Point", "coordinates": [-22.86981015481255, -0.008527493251898194]}}, {"type": "Feature", "properties": {"norad_id": 40425, "name": "EUTELSAT 115 WEST B", "group": "eutelsat", "lat": 0.0075738232649306516, "lon": -140.9314687356277, "alt_km": 35786.965148119314, "timestamp": "2025-12-10T16:57:11.306031+00:00", "meta": {"OBJECT_NAME": "EUTELSAT 115 WEST B", "OBJECT_ID": "2015-010B", "EPOCH": "2025-12-10T08:42:38.903328", "MEAN_MOTION": 1.00269692, "ECCENTRICITY": 1.71e-05, "INCLINATION": 0.0097, "RA_OF_ASC_NODE": 147.1006, "ARG_OF_PERICENTER": 317.0507, "MEAN_ANOMALY": 350.9478, "EPHEMERIS_TYPE": 0, "CLASSIFICATION_TYPE": "U", "NORAD_CAT_ID": 40425, "ELEMENT_SET_NO": 999, "REV_AT_EPOCH": 3950, "BSTAR": 0, "MEAN_MOTION_DOT": -2.1e-07, "MEAN_MOTION_DDOT": 0}, "tle": {"line1": "1 40425U 15010B   25344.36295027 -.00000021  00000+0  00000+0 0  9996", "line2": "2 40425   0.0097 147.1006 0000171 317.0507 350.9478  1.00269692 39502"}}, "geometry": {"type": "Point", "coordinates": [-140.9314687356277, 0.0075738232649306516]}}, {"type": "Feature", "properties": {"norad_id": 40875, "name": "EUTELSAT 8 WEST B", "group": "eutelsat", "lat": -0.0441573415086995, "lon": -33.9691106984219, "alt_km": 35778.86357633893, "timestamp": "2025-12-10T16:57:11.306043+00:00", "meta": {"OBJECT_NAME": "EUTELSAT 8 WEST B", "OBJECT_ID": "2015-039B", "EPOCH": "2025-12-10T06:37:26.585760", "MEAN_MOTION": 1.00271535, "ECCENTRICITY": 0.0004175, "INCLINATION": 0.0648, "RA_OF_ASC_NODE": 2.5239, "ARG_OF_PERICENTER": 257.8515, "MEAN_ANOMALY": 270.2548, "EPHEMERIS_TYPE": 0, "CLASSIFICATION_TYPE": "U", "NORAD_CAT_ID": 40875, "ELEMENT_SET_NO": 999, "REV_AT_EPOCH": 3776, "BSTAR": 0, "MEAN_MOTION_DOT": -6.2e-07, "MEAN_MOTION_DDOT": 0}, "tle": {"line1": "1 40875U 15039B   25344.27600215 -.00000062  00000+0  00000+0 0  9990", "line2": "2 40875   0.0648   2.5239 0004175 257.8515 270.2548  1.00271535 37760"}}, "geometry": {"type": "Point", "coordinates": [-33.9691106984219, -0.0441573415086995]}}, {"type": "Feature", "properties": {"norad_id": 41310, "name": "EUTELSAT 9B", "group": "eutelsat", "lat": -0.0352446879833817, "lon": -16.956599635408764, "alt_km": 35781.415940287305, "timestamp": "2025-12-10T16:57:11.306055+00:00", "meta": {"OBJECT_NAME": "EUTELSAT 9B", "OBJECT_ID": "2016-005A", "EPOCH": "2025-12-10T06:21:38.694816", "MEAN_MOTION": 1.00272631, "ECCENTRICITY": 0.0004839, "INCLINATION": 0.0388, "RA_OF_ASC_NODE": 57.1944, "ARG_OF_PERICENTER": 208.2666, "MEAN_ANOMALY": 278.2089, "EPHEMERIS_TYPE": 0, "CLASSIFICATION_TYPE": "U", "NORAD_CAT_ID": 41310, "ELEMENT_SET_NO": 999, "REV_AT_EPOCH": 3622, "BSTAR": 0, "MEAN_MOTION_DOT": 6.5e-07, "MEAN_MOTION_DDOT": 0}, "tle": {"line1": "1 41310U 16005A   25344.26503119  .00000065  00000+0  00000+0 0  9995", "line2": "2 41310   0.0388  57.1944 0004839 208.2666 278.2089  1.00272631 36225"}}, "geometry": {"type": "Point", "coordinates": [-16.956599635408764, -0.0352446879833817]}}, {"type": "Feature", "properties": {"norad_id": 41382, "name": "EUTELSAT 65 WEST A", "group": "eutelsat", "lat": -0.06725940291893118, "lon": -91.22876237226218, "alt_km": 35774.85802394593, "timestamp": "2025-12-10T16:57:11.306066+00:00", "meta": {"OBJECT_NAME": "EUTELSAT 65 WEST A", "OBJECT_ID": "2016-014A", "EPOCH": "2025-12-10T04:07:38.715168", "MEAN_MOTION": 1.00272579, "ECCENTRICITY": 0.00026195, "INCLINATION": 0.0501, "RA_OF_ASC_NODE": 7.2682, "ARG_OF_PERICENTER": 258.3578, "MEAN_ANOMALY": 170.2329, "EPHEMERIS_TYPE": 0, "CLASSIFICATION_TYPE": "U", "NORAD_CAT_ID": 41382, "ELEMENT_SET_NO": 999, "REV_AT_EPOCH": 3564, "BSTAR": 0, "MEAN_MOTION_DOT": -2.73e-06, "MEAN_MOTION_DDOT": 0}, "tle": {"line1": "1 41382U 16014A   25344.17197587 -.00000273  00000+0  00000+0 0  9994", "line2": "2 41382   0.0501   7.2682 0002619 258.3578 170.2329  1.00272579 35642"}}, "geometry": {"type": "Point", "coordinates": [-91.22876237226218, -0.06725940291893118]}}, {"type": "Feature", "properties": {"norad_id": 41589, "name": "EUTELSAT 117 WEST B", "group": "eutelsat", "lat": 0.006947023650656483, "lon": -143.01245597242814, "alt_km": 35786.73687886853, "timestamp": "2025-12-10T16:57:11.306078+00:00", "meta": {"OBJECT_NAME": "EUTELSAT 117 WEST B", "OBJECT_ID": "2016-038B", "EPOCH": "2025-12-10T08:50:38.825088", "MEAN_MOTION": 1.00272599, "ECCENTRICITY": 3.07e-05, "INCLINATION": 0.0104, "RA_OF_ASC_NODE": 149.7768, "ARG_OF_PERICENTER": 293.6886, "MEAN_ANOMALY": 11.5535, "EPHEMERIS_TYPE": 0, "CLASSIFICATION_TYPE": "U", "NORAD_CAT_ID": 41589, "ELEMENT_SET_NO": 999, "REV_AT_EPOCH": 3477, "BSTAR": 0, "MEAN_MOTION_DOT": -8e-08, "MEAN_MOTION_DDOT": 0}, "tle": {"line1": "1 41589U 16038B   25344.36850492 -.00000008  00000+0  00000+0 0  9997", "line2": "2 41589   0.0104 149.7768 0000307 293.6886  11.5535  1.00272599 34774"}}, "geometry": {"type": "Point", "coordinates": [-143.01245597242814, 0.006947023650656483]}}]}